     2.11           N: GPS NAV DATA                         RINEX VERSION / TYPE
teqc  2019Feb25                         20221121 12:27:18UTCPGM / RUN BY / DATE
OSX ker:10.11.6|Core i5|gcc 4.3 -m64|OSX ker:10.10+|=+      COMMENT
    7.4506D-09  1.4901D-08 -5.9605D-08 -1.1921D-07          ION ALPHA
    7.9872D+04  1.6384D+04 -1.3107D+05 -1.3107D+05          ION BETA
   -2.793967723846D-09-3.552713678801D-15   405504     1549 DELTA-UTC: A0,A1,T,W
                                                            END OF HEADER
11 09  9 16  0  0  0.0-1.981016248465D-05-1.705302565824D-12 0.000000000000D+00
    4.400000000000D+01 6.196875000000D+01 6.528129065636D-09 2.333424385338D+00
    3.181397914886D-06 9.835107601248D-03 7.344409823418D-06 5.153697635651D+03
    2.592000000000D+05-1.955777406693D-07-2.621684503340D+00-2.067536115646D-07
    8.893291639008D-01 1.990937500000D+02 7.252430480497D-01-8.906442417648D-09
    5.918103655629D-10 1.000000000000D+00 1.549000000000D+03 0.000000000000D+00
    2.000000000000D+00 0.000000000000D+00-1.164153218269D-08 4.400000000000D+01
    2.520180000000D+05 4.000000000000D+00
28 09  9 16  0  0  0.0-2.615805715322D-05 0.000000000000D+00 0.000000000000D+00
    3.800000000000D+01-9.796875000000D+01 4.506973447820D-09-4.909898073991D-01
   -4.999339580536D-06 1.508238085080D-02 5.928799510002D-06 5.153656385422D+03
    2.592000000000D+05-1.136213541031D-07 1.818828174020D+00 2.030283212662D-07
    9.673965378688D-01 2.728750000000D+02-2.016795741764D+00-8.503211335740D-09
   -1.889364413897D-10 1.000000000000D+00 1.549000000000D+03 0.000000000000D+00
    2.800000000000D+00 0.000000000000D+00-1.024454832077D-08 3.800000000000D+01
    2.520180000000D+05 4.000000000000D+00
17 09  9 16  0  0  0.0 8.525978773832D-05 2.955857780762D-12 0.000000000000D+00
    1.010000000000D+02-2.381250000000D+01 4.404112020372D-09-1.042333438309D+00
   -1.182779669762D-06 4.649692680687D-03 1.264363527298D-05 5.153740772247D+03
    2.592000000000D+05 8.195638656616D-08 2.853419146189D+00-1.676380634308D-08
    9.603109277990D-01 1.345625000000D+02-2.644116927203D+00-7.876399512226D-09
    3.564434187277D-10 1.000000000000D+00 1.549000000000D+03 0.000000000000D+00
    2.800000000000D+00 0.000000000000D+00-1.024454832077D-08 1.010000000000D+02
    2.520180000000D+05 4.000000000000D+00
32 09  9 16  0  0  0.0 1.958673819900D-04-7.048583938740D-12 0.000000000000D+00
    3.800000000000D+01-4.668750000000D+01 4.617335187687D-09-3.068495530630D+00
   -2.324581146240D-06 1.324626093265D-02 8.249655365944D-06 5.153717578888D+03
    2.592000000000D+05 7.264316082001D-08-1.268717866437D+00 1.564621925354D-07
    9.621464847602D-01 2.175625000000D+02-1.118973252927D+00-7.909615181506D-09
   -6.946717930114D-10 1.000000000000D+00 1.549000000000D+03 0.000000000000D+00
    2.000000000000D+00 0.000000000000D+00-3.259629011154D-09 3.800000000000D+01
    2.520180000000D+05 4.000000000000D+00
 9 09  9 16  0  0  0.0 7.771607488394D-05 2.046363078989D-12 0.000000000000D+00
    1.020000000000D+02 6.706250000000D+01 4.341252259153D-09 1.565761297774D+00
    3.026798367500D-06 2.069551765453D-02 3.226101398468D-06 5.153624561310D+03
    2.592000000000D+05 2.048909664154D-08 7.073565850639D-01-5.699694156647D-07
    9.776333583306D-01 3.246562500000D+02 1.512743775827D+00-8.338918778010D-09
    3.432285825624D-10 1.000000000000D+00 1.549000000000D+03 0.000000000000D+00
    2.800000000000D+00 0.000000000000D+00-5.587935447693D-09 1.020000000000D+02
    2.520180000000D+05 4.000000000000D+00
27 09  9 16  0  0  0.0 8.306978270411D-05 3.183231456205D-12 0.000000000000D+00
    1.200000000000D+01 8.081250000000D+01 4.319465637367D-09-1.436632819261D+00
    4.775822162628D-06 2.135688473936D-02 3.257766366005D-06 5.153739322662D+03
    2.592000000000D+05 0.000000000000D+00 6.830654550237D-01 4.842877388000D-07
    9.756932261335D-01 3.279375000000D+02-1.545687634746D+00-8.390706649469D-09
    3.675153084878D-10 1.000000000000D+00 1.549000000000D+03 0.000000000000D+00
    2.000000000000D+00 0.000000000000D+00-4.190951585770D-09 1.200000000000D+01
    2.520180000000D+05 4.000000000000D+00
14 09  9 16  0  0  0.0-5.042506381869D-05 5.229594535194D-12 0.000000000000D+00
    4.500000000000D+01 9.103125000000D+01 3.582649231721D-09-1.542421918830D+00
    4.598870873451D-06 4.919939907268D-03 1.271069049835D-05 5.153650930405D+03
    2.592000000000D+05 1.993030309677D-07-2.661989564150D-01-1.676380634308D-08
    9.881463323754D-01 1.517500000000D+02-2.156208685055D+00-7.539956926614D-09
   -9.464679956196D-11 1.000000000000D+00 1.549000000000D+03 0.000000000000D+00
    2.000000000000D+00 0.000000000000D+00-8.847564458847D-09 4.500000000000D+01
    2.520180000000D+05 4.000000000000D+00
26 09  9 16  0  0  0.0 6.266543641686D-05-1.023181539495D-12 0.000000000000D+00
    3.700000000000D+01 8.850000000000D+01 3.508003265274D-09 1.904212499534D+00
    4.153698682785D-06 1.968193403445D-02 1.308694481850D-05 5.153612951279D+03
    2.592000000000D+05-2.086162567139D-07-2.485920731662D-01-3.781169652939D-07
    9.925281728623D-01 1.457500000000D+02 1.026748585800D+00-7.523884828575D-09
   -6.571702309208D-11 1.000000000000D+00 1.549000000000D+03 0.000000000000D+00
    2.000000000000D+00 0.000000000000D+00-6.053596735001D-09 3.700000000000D+01
    2.520180000000D+05 4.000000000000D+00
12 09  9 16  0  0  0.0-2.183797769248D-04 5.684341886081D-12 0.000000000000D+00
    6.000000000000D+01-1.195625000000D+02 4.412683805993D-09 2.496246949585D+00
   -6.383284926415D-06 3.098628250882D-03 5.977228283882D-06 5.153578107834D+03
    2.592000000000D+05 3.166496753693D-08 1.793662476442D+00 8.754432201386D-08
    9.677926639005D-01 2.645625000000D+02-5.870038273399D-01-8.216056517447D-09
   -3.089414400796D-10 1.000000000000D+00 1.549000000000D+03 0.000000000000D+00
    2.000000000000D+00 0.000000000000D+00-1.164153218269D-08 6.000000000000D+01
    2.529420000000D+05 4.000000000000D+00
 4 09  9 16  0  0  0.0-2.673752605915D-04-1.739408617141D-11 0.000000000000D+00
    5.700000000000D+01 4.825000000000D+01 5.603447691802D-09 7.267753128347D-01
    2.732500433922D-06 8.748666034080D-03 5.396082997322D-06 5.153794376373D+03
    2.592000000000D+05 3.539025783539D-08-2.397700526285D+00 6.705522537231D-08
    9.400666782819D-01 2.626875000000D+02 5.136659460999D-01-8.753578907412D-09
    2.260808457461D-10 1.000000000000D+00 1.549000000000D+03 0.000000000000D+00
    2.000000000000D+00 0.000000000000D+00-6.053596735001D-09 5.700000000000D+01
    2.530320000000D+05 4.000000000000D+00
23 09  9 16  0  0  0.0 3.885342739522D-04-3.410605131648D-13 0.000000000000D+00
    7.100000000000D+01 6.159375000000D+01 3.985880313628D-09-2.194159675146D+00
    3.140419721603D-06 6.468978128396D-03 1.254118978977D-05 5.153577003479D+03
    2.592000000000D+05-9.313225746155D-08-3.006414988337D-01-5.587935447693D-08
    9.700641133955D-01 1.429687500000D+02 2.971717127215D+00-7.738893784561D-09
   -6.428839215530D-11 1.000000000000D+00 1.549000000000D+03 0.000000000000D+00
    2.000000000000D+00 0.000000000000D+00-2.002343535423D-08 7.100000000000D+01
    2.561220000000D+05 4.000000000000D+00
30 09  9 16  0  0  0.0 1.772339455783D-04 3.069544618484D-12 0.000000000000D+00
    1.620000000000D+02-1.107812500000D+02 4.853416449991D-09-3.662121364911D-03
   -5.982816219330D-06 1.191612856928D-02 5.628913640976D-06 5.153673709869D+03
    2.592000000000D+05-1.937150955200D-07 1.744093854087D+00 9.313225746155D-08
    9.529024751158D-01 2.695000000000D+02 1.452140744222D+00-8.663575158394D-09
   -2.814402945465D-10 1.000000000000D+00 1.549000000000D+03 0.000000000000D+00
    2.800000000000D+00 0.000000000000D+00-7.916241884232D-09 1.620000000000D+02
    2.567520000000D+05 4.000000000000D+00
 2 09  9 16  0  0  0.0 1.727500930429D-04 2.955857780762D-12 0.000000000000D+00
    7.200000000000D+01 4.418750000000D+01 5.522015728406D-09-2.114053626819D+00
    2.311542630196D-06 9.084015735425D-03 5.690380930901D-06 5.153701599121D+03
    2.592000000000D+05-1.974403858185D-07-2.415935953750D+00-1.788139343262D-07
    9.408902996976D-01 2.606562500000D+02 2.893770230403D+00-8.576071513516D-09
    3.614436270064D-10 1.000000000000D+00 1.549000000000D+03 0.000000000000D+00
    2.000000000000D+00 0.000000000000D+00-1.722946763039D-08 7.200000000000D+01
    2.569320000000D+05 4.000000000000D+00
31 09  9 16  0  0  0.0-6.431993097067D-05 4.547473508865D-13 0.000000000000D+00
    4.700000000000D+01 7.709375000000D+01 4.317679848696D-09 2.291696110044D+00
    4.082918167114D-06 7.043208810501D-03 3.110617399216D-06 5.153786790848D+03
    2.592000000000D+05 2.235174179077D-08 7.389879036410D-01 2.793967723846D-08
    9.740723231421D-01 3.229375000000D+02-1.139542836407D+00-8.219628094789D-09
    3.128701751558D-10 1.000000000000D+00 1.549000000000D+03 0.000000000000D+00
    2.000000000000D+00 0.000000000000D+00-1.303851604462D-08 4.700000000000D+01
    2.576820000000D+05 4.000000000000D+00
